# From MPC 75007
C/1995 O1 (Hale-Bopp),e,89.3041,282.6681,130.8811,184.6707,0.0003927,0.99491264,0.0000,03/29.2886/1997,2000,g -2.0,4.0
# From NK 1615
P/1996 R2 (Lagerkvist),e,2.6014,40.0572,333.2220,3.772815,0.1344949,0.31281642,255.0155,12/23.0/2016,2000,g 11.5,4.0
# From MPC 30063
P/1997 B1 (Kobayashi),e,12.3692,329.0070,183.3779,8.556246,0.0393803,0.76103334,284.3900,12/23.0/2016,2000,g 15.0,2.0
# From MPC 75703
P/1998 VS24 (LINEAR),e,5.0228,159.0570,245.0191,4.533781,0.1020971,0.24165415,319.9170,12/23.0/2016,2000,g 13.0,2.0
# From NK 1780
P/1999 D1 (Hermann),e,21.3524,348.7505,174.0914,5.757256,0.0713478,0.71395355,104.5438,12/23.0/2016,2000,g 15.0,4.0
# From CCO 17
P/1999 R1 (SOHO),e,12.5545,359.6234,48.9717,2.515688,0.2470125,0.97882196,0.0000,09/04.0198/2015,2000,g 27.0,6.0
# From NK 731
P/1999 RO28 (LONEOS),e,8.1145,147.5897,220.4868,3.487022,0.1513638,0.66268989,221.0312,12/23.0/2016,2000,g 20.0,2.0
# From MPC 75704
P/1999 XN120 (Catalina),e,5.0281,285.2978,162.0246,4.183491,0.1151850,0.21184450,340.2478,12/23.0/2016,2000,g 13.5,2.0
# From NK 744
P/2000 R2 (LINEAR),e,11.7844,160.6521,176.5084,3.453926,0.1535446,0.53643031,221.2304,12/23.0/2016,2000,g 18.0,4.0
# From MPC 75704
P/2000 S1 (Skiff),e,21.0180,28.1588,309.0939,6.624225,0.0578098,0.61715888,349.4017,12/23.0/2016,2000,g 10.0,4.0
# From MPC 73461
P/2000 S4 (LINEAR-Spacewatch),e,28.4560,174.1014,172.5148,7.132964,0.0517367,0.68030842,307.8108,12/23.0/2016,2000,g 17.5,2.0
# From MPC 75704
P/2001 BB50 (LINEAR-NEAT),e,10.3669,351.1810,193.5719,5.732328,0.0718137,0.58749465,60.4031,12/23.0/2016,2000,g 13.0,4.0
# From MPC 43019
P/2001 H5 (NEAT),e,8.3813,328.6920,224.7517,6.091465,0.0655574,0.60007900,28.0725,12/23.0/2016,2000,g 12.0,4.0
# From MPC 75704
P/2001 Q6 (NEAT),e,56.8525,21.9988,43.1478,7.928399,0.0441495,0.82310178,244.0474,12/23.0/2016,2000,g 13.5,4.0
# From MPC 82311
P/2001 R6 (LINEAR-Skiff),e,17.3791,67.3357,308.4720,4.178758,0.1153807,0.47547432,284.9611,12/23.0/2016,2000,g 13.0,4.0
# From MPC 75704
P/2001 T3 (NEAT),e,19.3974,55.1719,356.8247,6.441712,0.0602840,0.61432822,327.7608,12/23.0/2016,2000,g 12.0,4.0
# From MPC 47727
P/2002 EJ57 (LINEAR),e,4.9766,330.4531,166.9631,6.470743,0.0598788,0.59393678,327.5234,12/23.0/2016,2000,g 12.5,4.0
# From MPC 82311
P/2002 T5 (LINEAR),e,30.8856,123.1212,327.0455,6.983006,0.0534122,0.43759537,262.7926,12/23.0/2016,2000,g  8.0,4.0
# From MPC 75704
P/2002 T6 (NEAT-LINEAR),e,10.9806,208.6238,217.8847,7.637208,0.0466984,0.55868760,230.2144,12/23.0/2016,2000,g 10.5,4.0
# From MPC 75007
C/2002 VQ94 (LINEAR),e,70.4415,34.8959,100.1231,193.5388,0.0003661,0.96484408,1.4544,12/23.0/2016,2000,g  9.5,2.0
# From MPC 50354
P/2003 F2 (NEAT),e,11.6043,359.1285,191.6315,6.501096,0.0594599,0.54262223,297.3687,12/23.0/2016,2000,g 16.5,2.0
# From MPC 75704
P/2003 L1 (Scotti),e,9.0202,226.0568,354.5427,6.725471,0.0565093,0.25286774,286.9576,12/23.0/2016,2000,g  8.5,4.0
# From MPC 50139
P/2003 QX29 (NEAT),e,11.3834,264.5430,37.1719,8.055032,0.0431125,0.47042226,224.0891,12/23.0/2016,2000,g  8.5,4.0
# From MPC 99268
P/2003 T12 (SOHO),e,11.4570,176.4006,217.7676,2.572318,0.2389005,0.77554605,68.9097,12/23.0/2016,2000,g 17.0,4.0
# From MPC 75705
P/2003 U3 (NEAT),e,7.0041,348.0182,356.9243,5.060410,0.0865816,0.50858281,69.2603,12/23.0/2016,2000,g 13.5,4.0
# From MPC 82312
P/2004 A1 (LONEOS),e,10.5655,124.9267,21.6959,7.931587,0.0441229,0.31220464,197.7711,12/23.0/2016,2000,g  6.5,4.0
# From MPC 54558
P/2004 DO29 (Spacewatch-LINEAR),e,14.5388,147.5137,40.6005,7.281261,0.0501642,0.44277220,223.7460,12/23.0/2016,2000,g 13.5,2.0
# From MPC 54823
P/2004 FY140 (LINEAR),e,2.1369,326.7729,242.1115,4.892817,0.0910680,0.17020135,47.0067,12/23.0/2016,2000,g 12.5,2.0
# From MPC 53304
P/2004 R3 (LINEAR-NEAT),e,12.8442,306.4437,41.2635,4.715708,0.0962462,0.26473415,191.0899,12/23.0/2016,2000,g 14.5,4.0
# From CCO 17
P/2004 T1 (LINEAR-NEAT),e,11.0330,51.4621,336.3605,3.475869,0.1520929,0.50636992,315.2399,12/23.0/2016,2000,g 12.5,4.0
# From MPC 55521
P/2004 V3 (Siding Spring),e,50.3632,356.0990,322.2949,7.147171,0.0515825,0.44470874,229.4923,12/23.0/2016,2000,g 11.5,4.0
# From MPC 75705
P/2004 V5 (LINEAR-Hill),e,19.3530,47.7301,88.0715,7.953334,0.0439420,0.44626035,189.2442,12/23.0/2016,2000,g  8.0,4.0
# From MPC 75705
P/2004 WR9 (LINEAR),e,4.9312,24.8729,72.1405,6.137510,0.0648210,0.68302843,282.5102,12/23.0/2016,2000,g 14.5,4.0
# From MPC 54164
P/2005 E1 (Tubbiolo),e,4.2692,335.7018,194.1029,7.031852,0.0528566,0.37678543,229.5195,12/23.0/2016,2000,g 10.0,4.0
# From MPC 54823
P/2005 GF8 (LONEOS),e,1.1912,314.9157,285.3049,5.856884,0.0695351,0.51600878,289.6412,12/23.0/2016,2000,g 11.5,4.0
# From MPC 75290
P/2005 JN (Spacewatch),e,8.8567,70.7683,153.4200,3.497448,0.1506875,0.34872391,273.0486,12/23.0/2016,2000,g 14.0,4.0
# From MPC 79019
P/2005 J1 (McNaught),e,31.7605,268.7927,338.9152,3.568838,0.1461887,0.57004093,263.6592,12/23.0/2016,2000,g 16.5,4.0
# From MPC 75705
P/2005 JD108 (Catalina-NEAT),e,3.2787,223.8655,90.4087,6.487679,0.0596444,0.37457898,250.1076,12/23.0/2016,2000,g 10.0,4.0
# From MPC 74246
P/2005 L1 (McNaught),e,7.7324,138.2528,149.4649,3.982109,0.1240322,0.20782281,139.6015,12/23.0/2016,2000,g  9.5,4.0
# From MPC 87062
C/2005 L3 (McNaught),e,139.4627,288.8089,47.0597,2421,0.0000083,0.99768911,0.0000,01/10.8257/2008,2000,g  4.0,4.0
# From MPC 75706
P/2005 R1 (NEAT),e,15.4845,257.9800,118.8073,5.520309,0.0759905,0.62536065,312.0912,12/23.0/2016,2000,g 14.0,4.0
# From MPC 75706
P/2005 S2 (Skiff),e,3.1365,161.2005,230.3879,8.017851,0.0434127,0.19577670,166.7246,12/23.0/2016,2000,g  7.5,4.0
# From MPC 75706
P/2005 SB216 (LONEOS),e,24.0528,1.3849,83.6037,7.111980,0.0519659,0.46349723,187.3812,12/23.0/2016,2000,g 12.0,2.0
# From MPC 55717
P/2005 T2 (Christensen),e,8.2929,260.2541,59.1954,3.837709,0.1310980,0.41783952,202.2299,12/23.0/2016,2000,g 14.5,4.0
# From MPC 73461
P/2005 T3 (Read),e,6.2462,27.9586,8.8754,7.559386,0.0474214,0.17085848,190.1056,12/23.0/2016,2000,g  9.0,4.0
# From MPC 73461
P/2005 T4 (SWAN),e,160.0670,25.3767,41.2957,9.355741,0.0344419,0.93147430,141.0653,12/23.0/2016,2000,g 15.0,4.0
# From MPC 75706
P/2005 T5 (Broughton),e,21.3374,57.0223,304.6233,7.291102,0.0500627,0.55002771,204.5028,12/23.0/2016,2000,g 11.0,4.0
# From MPC 56954
P/2005 W3 (Kowalski),e,16.4459,210.4205,200.1655,6.339249,0.0617515,0.54262637,252.9627,12/23.0/2016,2000,g 12.0,4.0
# From MPC 75706
P/2005 XA54 (LONEOS-Hill),e,17.1386,143.7657,15.1226,6.049840,0.0662351,0.71096346,260.8329,12/23.0/2016,2000,g 14.0,4.0
# From MPC 75706
P/2005 Y2 (McNaught),e,19.1108,94.5331,194.4060,6.330564,0.0618786,0.46603063,273.2925,12/23.0/2016,2000,g  9.0,4.0
# From MPC 75707
P/2006 D1 (Hill),e,17.3702,359.9710,119.4401,5.565684,0.0750631,0.65971783,305.3152,12/23.0/2016,2000,g 16.0,4.0
# From MPC 75707
P/2006 F1 (Kowalski),e,21.2817,124.7462,186.0804,4.668436,0.0977118,0.11992149,316.3812,12/23.0/2016,2000,g  8.0,4.0
# From MPC 56954
P/2006 F4 (Spacewatch),e,12.3881,184.0460,31.0190,3.528625,0.1486948,0.33780180,218.3611,12/23.0/2016,2000,g 15.0,4.0
# From MPC 58118
P/2006 H1 (McNaught),e,12.8772,0.0679,309.8087,5.733732,0.0717874,0.58075828,282.3768,12/23.0/2016,2000,g 12.5,4.0
# From MPC 75707
P/2006 HR30 (Siding Spring),e,31.9044,309.6514,117.5879,7.807596,0.0451781,0.84201057,164.7101,12/23.0/2016,2000,g 11.0,4.0
# From MPC 73914
C/2006 K4 (NEAT),e,111.3164,116.6580,233.6033,1024,0.0000301,0.99688034,0.0000,11/24.5601/2007,2000,g  6.0,4.0
# From MPC 82313
C/2006 OF2 (Broughton),h,09/11.6513/2008,30.0920,318.4179,95.9966,1.002127,2.458265,2000,5.5,4.0
# From MPC 72849
C/2006 Q1 (McNaught),e,59.1574,199.3095,344.4057,1992,0.0000111,0.99861465,0.0000,07/04.7126/2008,2000,g  5.0,4.0
# From MPC 73461
P/2006 R1 (Siding Spring),e,160.0722,218.8324,249.3542,5.631819,0.0737447,0.70530651,278.3161,12/23.0/2016,2000,g 16.0,4.0
# From MPC 69905
P/2006 S1 (Christensen),e,12.3267,207.9656,133.9455,3.529488,0.1486403,0.60348157,206.1744,12/23.0/2016,2000,g 17.5,4.0
# From MPC 98557
C/2006 S3 (LONEOS),e,166.0233,38.3464,140.0038,60860,0.0000001,0.99991562,0.0000,04/13.3538/2012,2000,g  2.0,4.0
# From MPC 75707
P/2006 S4 (Christensen),e,39.5801,36.1160,305.7289,6.268569,0.0627988,0.50613694,243.4913,12/23.0/2016,2000,g 11.0,4.0
# From MPC 60465
C/2006 S5 (Hill),e,10.1330,281.4175,182.3521,98.14134,0.0010137,0.97302816,0.0000,12/07.8836/2007,2000,g  8.0,4.0
# From MPC 66204
C/2006 U6 (Spacewatch),e,84.7116,179.9783,276.6365,2477,0.0000080,0.99898798,0.0000,06/02.7173/2008,2000,g  8.0,4.0
# From MPC 62580
C/2006 V1 (Catalina),e,31.4466,335.5717,252.9484,154.9488,0.0005110,0.98292052,0.0000,11/26.8160/2007,2000,g  8.0,4.0
# From MPC 75707
P/2006 W1 (Gibbs),e,18.5256,152.6960,231.7040,5.804783,0.0704734,0.70535603,277.1399,12/23.0/2016,2000,g 12.0,4.0
# From MPC 82313
C/2006 W3 (Christensen),e,127.0812,113.5473,133.2629,5971,0.0000021,0.99947996,0.0000,07/06.9629/2009,2000,g  5.0,4.0
# From MPC 75707
P/2007 A2 (Christensen),e,26.5289,300.9733,186.9119,6.308798,0.0621991,0.55861105,225.2617,12/23.0/2016,2000,g 13.5,4.0
# From MPC 59319
P/2007 B1 (Christensen),e,12.3789,77.7048,46.8931,5.807818,0.0704181,0.58154477,254.7964,12/23.0/2016,2000,g 13.5,4.0
# From MPC 66700
C/2007 B2 (Skiff),e,27.6058,14.6895,206.0940,605.2618,0.0000662,0.99510531,0.0000,08/23.4874/2008,2000,g  6.0,4.0
# From MPC 75707
P/2007 C2 (Catalina),e,8.7112,275.8236,179.5428,7.023016,0.0529564,0.46354855,179.8477,12/23.0/2016,2000,g 10.0,4.0
# From MPC 84315
C/2007 D1 (LINEAR),e,41.4871,170.9552,340.2661,2665,0.0000072,0.99669231,0.0000,06/17.5060/2007,2000,g  3.5,4.0
# From MPC 66464
C/2007 G1 (LINEAR),e,88.5128,79.0230,223.8774,3764,0.0000043,0.99929674,0.0000,11/13.2806/2008,2000,g  5.5,4.0
# From MPC 82314
P/2007 K2 (Gibbs),e,7.6607,188.6433,347.5120,7.250818,0.0504805,0.68579659,175.6470,12/23.0/2016,2000,g 14.0,4.0
# From MPC 82314
C/2007 K3 (Siding Spring),e,16.3613,263.2195,23.3208,1419,0.0000184,0.99856763,0.0000,04/20.5791/2008,2000,g  9.5,4.0
# From MPC 87475
